{
  "type": "FeatureCollection",
  "features": [
    {
      "type": "Feature",
      "properties": {
        "norad_id": 34389,
        "name": "COSMOS 2251 DEB",
        "group": "cosmos-2251-debris",
        "lat": 16.200665997662497,
        "lon": -94.04042076722648,
        "alt_km": 733.4512463100637,
        "timestamp": "2025-12-06T14:35:37.520284+00:00",
        "meta_object_name": "COSMOS 2251 DEB",
        "meta_object_id": "1993-036QE",
        "meta_epoch": "2025-12-06T05:13:00.843168",
        "meta_mean_motion": 14.41505737,
        "meta_eccentricity": 0.00285728,
        "meta_inclination": 74.0197,
        "meta_ra_of_asc_node": 261.9079,
        "meta_arg_of_pericenter": 15.2392,
        "meta_mean_anomaly": 135.0242,
        "meta_ephemeris_type": 0,
        "meta_classification_type": "U",
        "meta_norad_cat_id": 34389,
        "meta_element_set_no": 999,
        "meta_rev_at_epoch": 87918,
        "meta_bstar": 0.00079729156,
        "meta_mean_motion_dot": 2.576e-05,
        "meta_mean_motion_ddot": 0,
        "tle_line1": "1 34389U 93036QE  25340.21737087  .00002576  00000+0  79729-3 0  9993",
        "tle_line2": "2 34389  74.0197 261.9079 0028572  15.2392 135.0242 14.41505737879184"
      },
      "geometry": {
        "type": "Point",
        "coordinates": [
          -94.04042076722648,
          16.200665997662497
        ]
      }
    },
    {
      "type": "Feature",
      "properties": {
        "norad_id": 34396,
        "name": "COSMOS 2251 DEB",
        "group": "cosmos-2251-debris",
        "lat": -57.43469447421597,
        "lon": 109.36355190683291,
        "alt_km": 657.0056829998957,
        "timestamp": "2025-12-06T14:35:37.520294+00:00",
        "meta_object_name": "COSMOS 2251 DEB",
        "meta_object_id": "1993-036QM",
        "meta_epoch": "2025-12-05T13:05:56.274144",
        "meta_mean_motion": 14.74103814,
        "meta_eccentricity": 0.00071152,
        "meta_inclination": 74.0281,
        "meta_ra_of_asc_node": 138.0803,
        "meta_arg_of_pericenter": 181.8235,
        "meta_mean_anomaly": 241.8695,
        "meta_ephemeris_type": 0,
        "meta_classification_type": "U",
        "meta_norad_cat_id": 34396,
        "meta_element_set_no": 999,
        "meta_rev_at_epoch": 88240,
        "meta_bstar": 0.0039548378,
        "meta_mean_motion_dot": 0.00026142,
        "meta_mean_motion_ddot": 0,
        "tle_line1": "1 34396U 93036QM  25339.54579021  .00026142  00000+0  39548-2 0  9996",
        "tle_line2": "2 34396  74.0281 138.0803 0007115 181.8235 241.8695 14.74103814882404"
      },
      "geometry": {
        "type": "Point",
        "coordinates": [
          109.36355190683291,
          -57.43469447421597
        ]
      }
    },
    {
      "type": "Feature",
      "properties": {
        "norad_id": 34400,
        "name": "COSMOS 2251 DEB",
        "group": "cosmos-2251-debris",
        "lat": 14.301283948839203,
        "lon": 41.11202905631562,
        "alt_km": 418.3391783778943,
        "timestamp": "2025-12-06T14:35:37.520304+00:00",
        "meta_object_name": "COSMOS 2251 DEB",
        "meta_object_id": "1993-036QR",
        "meta_epoch": "2025-12-05T13:44:34.644480",
        "meta_mean_motion": 15.49622248,
        "meta_eccentricity": 0.00071481,
        "meta_inclination": 73.9681,
        "meta_ra_of_asc_node": 39.1879,
        "meta_arg_of_pericenter": 270.2608,
        "meta_mean_anomaly": 89.7786,
        "meta_ephemeris_type": 0,
        "meta_classification_type": "U",
        "meta_norad_cat_id": 34400,
        "meta_element_set_no": 999,
        "meta_rev_at_epoch": 89863,
        "meta_bstar": 0.0048528549,
        "meta_mean_motion_dot": 0.0027849,
        "meta_mean_motion_ddot": 0,
        "tle_line1": "1 34400U 93036QR  25339.57262320  .00278490  00000+0  48529-2 0  9990",
        "tle_line2": "2 34400  73.9681  39.1879 0007148 270.2608  89.7786 15.49622248898631"
      },
      "geometry": {
        "type": "Point",
        "coordinates": [
          41.11202905631562,
          14.301283948839203
        ]
      }
    },
    {
      "type": "Feature",
      "properties": {
        "norad_id": 34409,
        "name": "COSMOS 2251 DEB",
        "group": "cosmos-2251-debris",
        "lat": -8.415505998494627,
        "lon": 140.90643551867328,
        "alt_km": 753.897457952331,
        "timestamp": "2025-12-06T14:35:37.520314+00:00",
        "meta_object_name": "COSMOS 2251 DEB",
        "meta_object_id": "1993-036RA",
        "meta_epoch": "2025-12-06T00:51:44.395200",
        "meta_mean_motion": 14.58001055,
        "meta_eccentricity": 0.00795584,
        "meta_inclination": 74.0627,
        "meta_ra_of_asc_node": 319.5697,
        "meta_arg_of_pericenter": 35.7131,
        "meta_mean_anomaly": 30.6939,
        "meta_ephemeris_type": 0,
        "meta_classification_type": "U",
        "meta_norad_cat_id": 34409,
        "meta_element_set_no": 999,
        "meta_rev_at_epoch": 89095,
        "meta_bstar": 0.00042443319,
        "meta_mean_motion_dot": 2.007e-05,
        "meta_mean_motion_ddot": 0,
        "tle_line1": "1 34409U 93036RA  25340.03593050  .00002007  00000+0  42443-3 0  9998",
        "tle_line2": "2 34409  74.0627 319.5697 0079558  35.7131  30.6939 14.58001055890952"
      },
      "geometry": {
        "type": "Point",
        "coordinates": [
          140.90643551867328,
          -8.415505998494627
        ]
      }
    },
    {
      "type": "Feature",
      "properties": {
        "norad_id": 34410,
        "name": "COSMOS 2251 DEB",
        "group": "cosmos-2251-debris",
        "lat": -25.95791858461895,
        "lon": -93.37206806026032,
        "alt_km": 528.7046750233521,
        "timestamp": "2025-12-06T14:35:37.520324+00:00",
        "meta_object_name": "COSMOS 2251 DEB",
        "meta_object_id": "1993-036RB",
        "meta_epoch": "2025-12-05T21:35:53.931264",
        "meta_mean_motion": 15.17921444,
        "meta_eccentricity": 0.0020798,
        "meta_inclination": 73.7399,
        "meta_ra_of_asc_node": 276.3024,
        "meta_arg_of_pericenter": 118.3137,
        "meta_mean_anomaly": 306.6601,
        "meta_ephemeris_type": 0,
        "meta_classification_type": "U",
        "meta_norad_cat_id": 34410,
        "meta_element_set_no": 999,
        "meta_rev_at_epoch": 89670,
        "meta_bstar": 0.0034701247,
        "meta_mean_motion_dot": 0.00071474,
        "meta_mean_motion_ddot": 0,
        "tle_line1": "1 34410U 93036RB  25339.89992976  .00071474  00000+0  34701-2 0  9993",
        "tle_line2": "2 34410  73.7399 276.3024 0020798 118.3137 306.6601 15.17921444896706"
      },
      "geometry": {
        "type": "Point",
        "coordinates": [
          -93.37206806026032,
          -25.95791858461895
        ]
      }
    },
    {
      "type": "Feature",
      "properties": {
        "norad_id": 34412,
        "name": "COSMOS 2251 DEB",
        "group": "cosmos-2251-debris",
        "lat": -72.09943363209301,
        "lon": -86.90598561851617,
        "alt_km": 862.1005354085783,
        "timestamp": "2025-12-06T14:35:37.520334+00:00",
        "meta_object_name": "COSMOS 2251 DEB",
        "meta_object_id": "1993-036RD",
        "meta_epoch": "2025-12-06T00:02:38.947488",
        "meta_mean_motion": 14.47029098,
        "meta_eccentricity": 0.01871124,
        "meta_inclination": 73.948,
        "meta_ra_of_asc_node": 337.2799,
        "meta_arg_of_pericenter": 73.9365,
        "meta_mean_anomaly": 288.2307,
        "meta_ephemeris_type": 0,
        "meta_classification_type": "U",
        "meta_norad_cat_id": 34412,
        "meta_element_set_no": 999,
        "meta_rev_at_epoch": 87553,
        "meta_bstar": 0.0016006972,
        "meta_mean_motion_dot": 7.233e-05,
        "meta_mean_motion_ddot": 0,
        "tle_line1": "1 34412U 93036RD  25340.00183967  .00007233  00000+0  16007-2 0  9993",
        "tle_line2": "2 34412  73.9480 337.2799 0187112  73.9365 288.2307 14.47029098875532"
      },
      "geometry": {
        "type": "Point",
        "coordinates": [
          -86.90598561851617,
          -72.09943363209301
        ]
      }
    },
    {
      "type": "Feature",
      "properties": {
        "norad_id": 34413,
        "name": "COSMOS 2251 DEB",
        "group": "cosmos-2251-debris",
        "lat": 74.0088011192124,
        "lon": 3.5906333892585085,
        "alt_km": 793.5229818425678,
        "timestamp": "2025-12-06T14:35:37.520344+00:00",
        "meta_object_name": "COSMOS 2251 DEB",
        "meta_object_id": "1993-036RE",
        "meta_epoch": "2025-12-06T02:30:45.608256",
        "meta_mean_motion": 14.29009747,
        "meta_eccentricity": 0.00907549,
        "meta_inclination": 74.0321,
        "meta_ra_of_asc_node": 276.9269,
        "meta_arg_of_pericenter": 354.6279,
        "meta_mean_anomaly": 25.0997,
        "meta_ephemeris_type": 0,
        "meta_classification_type": "U",
        "meta_norad_cat_id": 34413,
        "meta_element_set_no": 999,
        "meta_rev_at_epoch": 87036,
        "meta_bstar": 0.0028308729,
        "meta_mean_motion_dot": 7.469e-05,
        "meta_mean_motion_ddot": 0,
        "tle_line1": "1 34413U 93036RE  25340.10469454  .00007469  00000+0  28309-2 0  9992",
        "tle_line2": "2 34413  74.0321 276.9269 0090754 354.6279  25.0997 14.29009747870365"
      },
      "geometry": {
        "type": "Point",
        "coordinates": [
          3.5906333892585085,
          74.0088011192124
        ]
      }
    }
  ]
}